[ {
  "id" : 4,
  "street" : "street1",
  "city" : "city1",
  "postalCode" : 1234
}, {
  "id" : 5,
  "street" : "Ohsannahcolony",
  "city" : "Banglore",
  "postalCode" : 505050
}, {
  "id" : 6,
  "street" : "Jasmine",
  "city" : "Bangalore",
  "postalCode" : 500001
}, {
  "id" : 9,
  "street" : "Jasmine",
  "city" : "Bangalore",
  "postalCode" : 500001
}, {
  "id" : 10,
  "street" : "ram street",
  "city" : "chennai",
  "postalCode" : 600001
}, {
  "id" : 11,
  "street" : "ram street",
  "city" : "chennai",
  "postalCode" : 600001
}, {
  "id" : 12,
  "street" : "ram street",
  "city" : "chennai",
  "postalCode" : 600001
}, {
  "id" : 13,
  "street" : "ram street",
  "city" : "chennai",
  "postalCode" : 600001
}, {
  "id" : 14,
  "street" : "ram street",
  "city" : "chennai",
  "postalCode" : 600001
}, {
  "id" : 15,
  "street" : "ram street",
  "city" : "chennai",
  "postalCode" : 600001
}, {
  "id" : 20,
  "street" : "church street",
  "city" : "chennai",
  "postalCode" : 600005
}, {
  "id" : 21,
  "street" : "ram street",
  "city" : "chennai",
  "postalCode" : 600001
}, {
  "id" : 23,
  "street" : "ram street",
  "city" : "chennai",
  "postalCode" : 600001
}, {
  "id" : 24,
  "street" : "ram street",
  "city" : "chennai",
  "postalCode" : 600001
}, {
  "id" : 25,
  "street" : "ram street",
  "city" : "chennai",
  "postalCode" : 600001
}, {
  "id" : 26,
  "street" : "ram street",
  "city" : "chennai",
  "postalCode" : 600001
}, {
  "id" : 28,
  "street" : "ram street",
  "city" : "chennai",
  "postalCode" : 600001
}, {
  "id" : 29,
  "street" : "ram street",
  "city" : "chennai",
  "postalCode" : 600001
}, {
  "id" : 34,
  "street" : "ram street",
  "city" : "chennai",
  "postalCode" : 600001
}, {
  "id" : 35,
  "street" : "ram street",
  "city" : "chennai",
  "postalCode" : 600001
}, {
  "id" : 36,
  "street" : "ram street",
  "city" : "chennai",
  "postalCode" : 600001
}, {
  "id" : 37,
  "street" : "ram street",
  "city" : "chennai",
  "postalCode" : 600001
}, {
  "id" : 38,
  "street" : "ram street",
  "city" : "chennai",
  "postalCode" : 600001
}, {
  "id" : 39,
  "street" : "ram street",
  "city" : "chennai",
  "postalCode" : 600001
}, {
  "id" : 40,
  "street" : "ram street",
  "city" : "chennai",
  "postalCode" : 600001
}, {
  "id" : 41,
  "street" : "ram street",
  "city" : "chennai",
  "postalCode" : 600001
}, {
  "id" : 42,
  "street" : "ram street",
  "city" : "chennai",
  "postalCode" : 600001
}, {
  "id" : 44,
  "street" : "Jasmine",
  "city" : "Bangalore",
  "postalCode" : 500001
}, {
  "id" : 45,
  "street" : "Jasmine",
  "city" : "Bangalore",
  "postalCode" : 500001
}, {
  "id" : 48,
  "street" : "Jasmine",
  "city" : "Bangalore",
  "postalCode" : 500001
}, {
  "id" : 49,
  "street" : "ram street",
  "city" : "chennai",
  "postalCode" : 600001
}, {
  "id" : 50,
  "street" : "ram street",
  "city" : "chennai",
  "postalCode" : 600001
}, {
  "id" : 51,
  "street" : "Jasmine",
  "city" : "Bangalore",
  "postalCode" : 500001
}, {
  "id" : 52,
  "street" : "Jasmine",
  "city" : "Bangalore",
  "postalCode" : 500001
}, {
  "id" : 53,
  "street" : "Jasmine",
  "city" : "Bangalore",
  "postalCode" : 500001
}, {
  "id" : 54,
  "street" : "ram street",
  "city" : "chennai",
  "postalCode" : 600001
}, {
  "id" : 56,
  "street" : "ram street",
  "city" : "chennai",
  "postalCode" : 600001
}, {
  "id" : 57,
  "street" : "ram street",
  "city" : "chennai",
  "postalCode" : 600001
}, {
  "id" : 58,
  "street" : "ram street",
  "city" : "chennai",
  "postalCode" : 600001
}, {
  "id" : 59,
  "street" : "ram street",
  "city" : "chennai",
  "postalCode" : 600001
}, {
  "id" : 61,
  "street" : "ram street",
  "city" : "chennai",
  "postalCode" : 600001
}, {
  "id" : 62,
  "street" : "ram street",
  "city" : "chennai",
  "postalCode" : 600001
}, {
  "id" : 63,
  "street" : "ram street",
  "city" : "chennai",
  "postalCode" : 600001
}, {
  "id" : 64,
  "street" : "ram street",
  "city" : "chennai",
  "postalCode" : 600001
}, {
  "id" : 65,
  "street" : "ram street",
  "city" : "chennai",
  "postalCode" : 600001
}, {
  "id" : 66,
  "street" : "ram street",
  "city" : "chennai",
  "postalCode" : 600001
}, {
  "id" : 67,
  "street" : "ram street",
  "city" : "chennai",
  "postalCode" : 600001
}, {
  "id" : 68,
  "street" : "ram street",
  "city" : "chennai",
  "postalCode" : 600001
}, {
  "id" : 69,
  "street" : "ram street",
  "city" : "chennai",
  "postalCode" : 600001
}, {
  "id" : 70,
  "street" : "ram street",
  "city" : "chennai",
  "postalCode" : 600001
}, {
  "id" : 71,
  "street" : "ram street",
  "city" : "chennai",
  "postalCode" : 600001
}, {
  "id" : 72,
  "street" : "ram street",
  "city" : "chennai",
  "postalCode" : 600001
}, {
  "id" : 73,
  "street" : "ram street",
  "city" : "chennai",
  "postalCode" : 600001
}, {
  "id" : 74,
  "street" : "ram street",
  "city" : "chennai",
  "postalCode" : 600001
}, {
  "id" : 79,
  "street" : "ram street",
  "city" : "chennai",
  "postalCode" : 600001
}]