[ 
    {
        "id" : 4,
        "street" : "street1",
        "city" : "city1",
        "postalCode" : "1234"
    }, 
    {
        "id" : 5,
        "street" : "Ohsannahcolony",
        "city" : "Banglore",
        "postalCode" : 505050
    }, 
    {
        "id" : 6,
        "street" : "Jasmine",
        "city" : "Bangalore",
        "postalCode" : 500001
    },
    {
        "id" : 9,
        "street" : "Jasmine",
        "city" : "Bangalore",
        "postalCode" : 500001
    },
    {
        "id" : 48,
        "street" : "Jasmine",
        "city" : "Bangalore",
        "postalCode" : 500001
    }, {
        "id" : 49,
        "street" : "ram street",
        "city" : "chennai",
        "postalCode" : 600001
    }, {
        "id" : 50,
        "street" : "ram street",
        "city" : "chennai",
        "postalCode" : 600001
    }, {
        "id" : 51,
        "street" : "Jasmine",
        "city" : "Bangalore",
        "postalCode" : 500001
    }, {
        "id" : 52,
        "street" : "Jasmine",
        "city" : "Bangalore",
        "postalCode" : 500001
    }, {
        "id" : 53,
        "street" : "Jasmine",
        "city" : "Bangalore",
        "postalCode" : 500001
    }, {
        "id" : 54,
        "street" : "ram street",
        "city" : "chennai",
        "postalCode" : 600001
    }, {
        "id" : 56,
        "street" : "ram street",
        "city" : "chennai",
        "postalCode" : 600001
    }, {
        "id" : 57,
        "street" : "ram street",
        "city" : "chennai",
        "postalCode" : 600001
    }, {
        "id" : 58,
        "street" : "ram street",
        "city" : "chennai",
        "postalCode" : 600001
    }, {
        "id" : 59,
        "street" : "ram street",
        "city" : "chennai",
        "postalCode" : 600001
    }, {
        "id" : 61,
        "street" : "ram street",
        "city" : "chennai",
        "postalCode" : 600001
    }, {
        "id" : 62,
        "street" : "ram street",
        "city" : "chennai",
        "postalCode" : 600001
    }, {
        "id" : 63,
        "street" : "ram street",
        "city" : "chennai",
        "postalCode" : 600001
    }, {
        "id" : 64,
        "street" : "ram street",
        "city" : "chennai",
        "postalCode" : 600001
    }, {
        "id" : 65,
        "street" : "ram street",
        "city" : "chennai",
        "postalCode" : 600001
    }, {
        "id" : 66,
        "street" : "ram street",
        "city" : "chennai",
        "postalCode" : 600001
    }, {
        "id" : 67,
        "street" : "ram street",
        "city" : "chennai",
        "postalCode" : 600001
    }, {
        "id" : 68,
        "street" : "ram street",
        "city" : "chennai",
        "postalCode" : 600001
    }, {
        "id" : 69,
        "street" : "ram street",
        "city" : "chennai",
        "postalCode" : 600001
    }, {
        "id" : 70,
        "street" : "ram street",
        "city" : "chennai",
        "postalCode" : 600001
    }, {
        "id" : 71,
        "street" : "ram street",
        "city" : "chennai",
        "postalCode" : 600001
    }, {
        "id" : 72,
        "street" : "ram street",
        "city" : "chennai",
        "postalCode" : 600001
    }, {
        "id" : 73,
        "street" : "ram street",
        "city" : "chennai",
        "postalCode" : 600001
    }, {
        "id" : 74,
        "street" : "ram street",
        "city" : "chennai",
        "postalCode" : 600001
    }, 
    {
        "id" : 79,
        "street" : "ram street",
        "city" : "chennai",
        "postalCode" : 600001
    }
]